[{"OBJECT_NAME":"PRAETORIAN SDA_610","OBJECT_ID":"2025-203J","EPOCH":"2026-03-09T13:44:25.913760","MEAN_MOTION":13.840113,"ECCENTRICITY":0.0007844,"INCLINATION":81.2976,"RA_OF_ASC_NODE":103.001,"ARG_OF_PERICENTER":103.3116,"MEAN_ANOMALY":256.8916,"EPHEMERIS_TYPE":0,"CLASSIFICATION_TYPE":"U","NORAD_CAT_ID":65573,"ELEMENT_SET_NO":999,"REV_AT_EPOCH":2491,"BSTAR":5.8921e-5,"MEAN_MOTION_DOT":7.7e-7,"MEAN_MOTION_DDOT":0},{"OBJECT_NAME":"SL-8 R\/B","OBJECT_ID":"2002-026B","EPOCH":"2026-03-09T21:59:06.562752","MEAN_MOTION":13.7694321,"ECCENTRICITY":0.00448824,"INCLINATION":82.9489,"RA_OF_ASC_NODE":223.6892,"ARG_OF_PERICENTER":103.1005,"MEAN_ANOMALY":257.5167,"EPHEMERIS_TYPE":0,"CLASSIFICATION_TYPE":"U","NORAD_CAT_ID":27437,"ELEMENT_SET_NO":999,"REV_AT_EPOCH":19491,"BSTAR":3.0373225e-5,"MEAN_MOTION_DOT":4.6e-7,"MEAN_MOTION_DDOT":0}]
